{
    "links": {
        "self": "http://www.neowsapp.com/rest/v1/neo/3719477?api_key=iIulBulltgU6a56xZRHN4H3l9WmuAYTsLGpBGhQ2"
    },
    "id": "3719477",
    "neo_reference_id": "3719477",
    "name": "(2015 KE23)",
    "designation": "2015 KE23",
    "nasa_jpl_url": "http://ssd.jpl.nasa.gov/sbdb.cgi?sstr=3719477",
    "absolute_magnitude_h": 24.8,
    "estimated_diameter": {
        "kilometers": {
            "estimated_diameter_min": 0.0291443905,
            "estimated_diameter_max": 0.0651688382
        },
        "meters": {
            "estimated_diameter_min": 29.1443904535,
            "estimated_diameter_max": 65.1688382168
        },
        "miles": {
            "estimated_diameter_min": 0.018109479,
            "estimated_diameter_max": 0.0404940262
        },
        "feet": {
            "estimated_diameter_min": 95.6180819754,
            "estimated_diameter_max": 213.8085311752
        }
    },
    "is_potentially_hazardous_asteroid": false,
    "close_approach_data": [
        {
            "close_approach_date": "2015-05-30",
            "close_approach_date_full": "2015-May-30 15:09",
            "epoch_date_close_approach": 1432998540000,
            "relative_velocity": {
                "kilometers_per_second": "2.3259054619",
                "kilometers_per_hour": "8373.2596627214",
                "miles_per_hour": "5202.8179276504"
            },
            "miss_distance": {
                "astronomical": "0.2023245263",
                "lunar": "78.7042407307",
                "kilometers": "30267318.183238981",
                "miles": "18807239.4157846978"
            },
            "orbiting_body": "Earth"
        }
    ],
    "orbital_data": {
        "orbit_id": "4",
        "orbit_determination_date": "2017-04-06 08:33:38",
        "first_observation_date": "2015-05-20",
        "last_observation_date": "2015-05-24",
        "data_arc_in_days": 4,
        "observations_used": 19,
        "orbit_uncertainty": "9",
        "minimum_orbit_intersection": ".199924",
        "jupiter_tisserand_invariant": "4.307",
        "epoch_osculation": "2457164.5",
        "eccentricity": ".2473532879640218",
        "semi_major_axis": "1.609721978707551",
        "inclination": "4.391958055541243",
        "ascending_node_longitude": "49.98953359632331",
        "orbital_period": "745.9757978513012",
        "perihelion_distance": "1.211551954566287",
        "perihelion_argument": "202.988226177282",
        "aphelion_distance": "2.007892002848815",
        "perihelion_time": "2457179.906653886564",
        "mean_anomaly": "352.5649124071601",
        "mean_motion": ".482589382975881",
        "equinox": "J2000",
        "orbit_class": {
            "orbit_class_type": "AMO",
            "orbit_class_description": "Near-Earth asteroid orbits similar to that of 1221 Amor",
            "orbit_class_range": "1.017 AU < q (perihelion) < 1.3 AU"
        }
    },
    "is_sentry_object": false
}